{"type":"FeatureCollection","features":[
{"id":1108699703,"type":"Feature","properties":{"name":"Tayabas"},"geometry":{"coordinates":[[[121.49566,14.074116],[121.499539,14.074578],[121.502397,14.075266],[121.504447,14.07652],[121.504909,14.080099],[121.504618,14.087336],[121.505782,14.089217],[121.507208,14.092464],[121.510617,14.096685],[121.514221,14.100017],[121.52366,14.089797],[121.524331,14.089845],[121.531078,14.088384],[121.53545,14.085111],[121.535555,14.084936],[121.542625,14.084398],[121.546703,14.082082],[121.550685,14.081124],[121.552605,14.078759],[121.561682,14.079118],[121.565031,14.077767],[121.567756,14.074999],[121.57341,14.076551],[121.580317,14.0736],[121.584426,14.075347],[121.58828,14.083957],[121.588735,14.084253],[121.598849,14.082634],[121.600461,14.083257],[121.60622,14.089122],[121.603472,14.099517],[121.608845,14.103765],[121.611963,14.107122],[121.61236,14.110968],[121.6144,14.114859],[121.623397,14.11871],[121.627661,14.123448],[121.627843,14.123892],[121.634819,14.125866],[121.63695,14.125424],[121.64681,14.131514],[121.646223,14.145959],[121.649521,14.149174],[121.649677,14.149284],[121.651137,14.150116],[121.651628,14.149961],[121.659558,14.138976],[121.666708,14.138444],[121.673033,14.142261],[121.673109,14.142215],[121.675847,14.141349],[121.676514,14.141309],[121.685024,14.143123],[121.68959,14.138645],[121.689992,14.13834],[121.694847,14.138063],[121.695442,14.137852],[121.70258,14.137677],[121.702886,14.137793],[121.710578,14.130537],[121.710858,14.129709],[121.717912,14.126078],[121.719106,14.126026],[121.722407,14.124573],[121.725559,14.12482],[121.726474,14.124589],[121.731073,14.124388],[121.733964,14.12276],[121.734437,14.122059],[121.736521,14.119784],[121.743399,14.1204],[121.746941,14.122306],[121.753035,14.120434],[121.753429,14.120432],[121.754332,14.119897],[121.757746,14.119236],[121.76315,14.117317],[121.764212,14.114382],[121.764445,14.114135],[121.768351,14.111572],[121.770746,14.110364],[121.770694,14.107906],[121.769623,14.100821],[121.76935,14.100072],[121.764838,14.097758],[121.763831,14.096648],[121.76299,14.095208],[121.760237,14.092703],[121.758553,14.089917],[121.758264,14.085652],[121.754761,14.081883],[121.743567,14.084858],[121.736612,14.084363],[121.735712,14.081686],[121.728578,14.075921],[121.728316,14.07447],[121.723665,14.066602],[121.723538,14.066543],[121.717432,14.065352],[121.716875,14.06487],[121.715833,14.06446],[121.710676,14.059727],[121.70762,14.059046],[121.702689,14.054994],[121.699258,14.045797],[121.696733,14.044652],[121.695495,14.044458],[121.694941,14.044788],[121.689364,14.046836],[121.681763,14.04617],[121.679022,14.045002],[121.676616,14.04321],[121.675443,14.042081],[121.671765,14.042348],[121.668136,14.040341],[121.665839,14.038084],[121.660844,14.027859],[121.660778,14.026739],[121.660918,14.025753],[121.6525,14.019735],[121.649232,14.012736],[121.648251,14.011457],[121.646582,14.010434],[121.645847,14.004222],[121.644462,13.999655],[121.641954,13.997212],[121.637251,13.98785],[121.638655,13.984193],[121.637464,13.979352],[121.636579,13.978581],[121.629069,13.974796],[121.626946,13.974304],[121.619716,13.985534],[121.611915,13.983513],[121.608785,13.980598],[121.608631,13.973953],[121.606769,13.971669],[121.602298,13.96968],[121.594805,13.973564],[121.590884,13.972883],[121.587105,13.970855],[121.585808,13.969419],[121.583303,13.964671],[121.582951,13.962546],[121.579027,13.960091],[121.578624,13.959738],[121.572195,13.955648],[121.571779,13.955501],[121.570606,13.954058],[121.567681,13.951952],[121.566444,13.950351],[121.55587,13.945554],[121.553582,13.947047],[121.551209,13.949583],[121.549396,13.956295],[121.550108,13.958664],[121.549012,13.966504],[121.548284,13.967017],[121.545446,13.971935],[121.544421,13.975425],[121.543326,13.977191],[121.540464,13.980376],[121.540518,13.981711],[121.533354,13.990059],[121.526908,13.990584],[121.522787,13.996332],[121.522114,14.000796],[121.522627,14.005308],[121.520077,14.008779],[121.518071,14.010437],[121.516474,14.013393],[121.514975,14.018968],[121.513646,14.020775],[121.513006,14.022835],[121.509771,14.027231],[121.506866,14.030398],[121.506401,14.030575],[121.500011,14.036211],[121.498256,14.04053],[121.494609,14.042482],[121.490434,14.045645],[121.489492,14.05132],[121.479896,14.057088],[121.478992,14.060653],[121.489399,14.068369],[121.489507,14.068392],[121.49566,14.074116]]],"type":"Polygon"}}
]}